[{"OBJECT_NAME":"STARLINK-5130","OBJECT_ID":"2022-125AK","EPOCH":"2026-03-09T15:35:47.623200","MEAN_MOTION":15.08837645,"ECCENTRICITY":0.00011771,"INCLINATION":53.2171,"RA_OF_ASC_NODE":204.5277,"ARG_OF_PERICENTER":75.5046,"MEAN_ANOMALY":284.6076,"EPHEMERIS_TYPE":0,"CLASSIFICATION_TYPE":"U","NORAD_CAT_ID":53997,"ELEMENT_SET_NO":999,"REV_AT_EPOCH":18959,"BSTAR":8.4013417e-5,"MEAN_MOTION_DOT":1.049e-5,"MEAN_MOTION_DDOT":0},{"OBJECT_NAME":"FENGYUN 1C DEB","OBJECT_ID":"1999-025AMC","EPOCH":"2026-03-09T19:39:36.291456","MEAN_MOTION":15.06799557,"ECCENTRICITY":0.00299661,"INCLINATION":98.9468,"RA_OF_ASC_NODE":22.995,"ARG_OF_PERICENTER":242.9892,"MEAN_ANOMALY":116.8272,"EPHEMERIS_TYPE":0,"CLASSIFICATION_TYPE":"U","NORAD_CAT_ID":30597,"ELEMENT_SET_NO":999,"REV_AT_EPOCH":99841,"BSTAR":0.005730905,"MEAN_MOTION_DOT":0.00087128,"MEAN_MOTION_DDOT":0}]
